55817,ONEWEB-0656,2023,109.03,148.0,+,87.93,Active,1,LEO,USA,UK,Commercial,Communications,Falcon,1 55817U 23029X   24279.36204825  .00000227  00000+0  52560-3 0  9997,2 55817  87.9276  37.7008 0001320  80.8975 279.2308 13.20772943 80013,13.20772943,0.000132,LEO
55818,ONEWEB-0657,2023,109.11,148.0,+,87.91,Active,1,LEO,USA,UK,Commercial,Communications,Falcon,1 55818U 23029Y   24278.96744909  .00000066  00000+0  13163-3 0  9992,2 55818  87.9129  68.3315 0001823  65.5222 294.6100 13.19726331 77784,13.19726331,0.0001823,LEO
55819,ONEWEB-0658,2023,109.11,148.0,+,87.91,Active,1,LEO,USA,UK,Commercial,Communications,Falcon,1 55819U 23029Z   24279.49342206  .00000074  00000+0  15271-3 0  9997,2 55819  87.9129  68.1615 0002271  97.1928 262.9463 13.19726685 77869,13.19726685,0.0002271,LEO
55820,ONEWEB-0660,2023,109.55,148.0,+,87.9,Active,1,LEO,USA,UK,Commercial,Communications,Falcon,1 55820U 23029AA  24278.84284097  .00000127  00000+0  30672-3 0  9991,2 55820  87.8988  53.0357 0001826 111.5247 248.6077 13.14504341 77904,13.14504341,0.0001826,LEO
55821,ONEWEB-0661,2023,109.55,148.0,+,87.9,Active,1,LEO,USA,UK,Commercial,Communications,Falcon,1 55821U 23029AB  24278.87772940 -.00000099  00000+0 -30037-3 0  9999,2 55821  87.8986  53.0965 0001749 113.8822 246.2491 13.14503920 77890,13.1450392,0.0001749,LEO
55822,ONEWEB-0662,2023,109.55,148.0,+,87.9,Active,1,LEO,USA,UK,Commercial,Communications,Falcon,1 55822U 23029AC  24278.91262780  .00000287  00000+0  74091-3 0  9996,2 55822  87.8989  53.0972 0001879 106.1083 254.0253 13.14503671 78651,13.14503671,0.0001879,LEO
55823,ONEWEB-0663,2023,109.02,148.0,+,87.93,Active,1,LEO,USA,UK,Commercial,Communications,Falcon,1 55823U 23029AD  24278.89857519  .00000166  00000+0  37737-3 0  9996,2 55823  87.9274  37.8528 0002035 110.3660 249.7693 13.20802309 79949,13.20802309,0.0002035,LEO
55824,ONEWEB-0664,2023,109.03,148.0,+,87.93,Active,1,LEO,USA,UK,Commercial,Communications,Falcon,1 55824U 23029AE  24278.89486858  .00000069  00000+0  13720-3 0  9999,2 55824  87.9277  37.8687 0001498 115.1600 244.9688 13.20770137 79953,13.20770137,0.0001498,LEO
